ALOS (DAICHI)           
1 28931U 06002A   26049.44095728  .00001383  00000+0  24021-3 0  9997
2 28931  98.1188   5.4982 0001713  56.4344 303.7025 14.69743176 70652
H-2A R/B                
1 28932U 06002B   26049.40436575  .00008069  00000+0  40983-3 0  9996
2 28932  98.2376 194.7814 0052191 307.5961  52.0537 15.16002863 91514
RESURS-DK 1             
1 29228U 06021A   26049.09414677  .00002111  00000+0  12669-3 0  9992
2 29228  69.9327 287.7110 0003497 188.7670 171.3436 15.12624950 84560
CZ-4B R/B               
1 29507U 06046C   26049.60974444  .00004640  00000+0  23727-3 0  9995
2 29507  97.5628  94.5686 0032676 336.2489  23.7233 15.16691138 57158
CZ-2C R/B               
1 31114U 07010B   26049.28163022  .00000109  00000+0  69318-4 0  9993
2 31114  98.3971 163.5344 0058694 351.8207   8.2008 14.20239061976966
COSMO-SKYMED 1          
1 31598U 07023A   26049.60766080  .00003895  00000+0  34910-3 0  9996
2 31598  97.8861 240.4888 0001428  92.0776 268.0609 14.96379122 12050
COSMOS 2428             
1 31792U 07029A   26049.56161433  .00000209  00000+0  13807-3 0  9992
2 31792  70.9401 243.4951 0008012 298.5376  61.4938 14.12939114961398
SL-16 R/B               
1 31793U 07029B   26049.61794336 -.00000025  00000+0  11784-4 0  9993
2 31793  70.9746 212.4721 0002349 280.5113 150.9923 14.14836596962671
KORONAS-FOTON           
1 33504U 09003A   26049.17999038  .00010512  00000+0  23898-3 0  9995
2 33504  82.4308 296.1534 0009480 220.4609 139.5935 15.42797644942735
CZ-2C R/B               
1 37731U 11030B   26049.50455784  .00001551  00000+0  20150-3 0  9997
2 37731  97.8514   7.1578 0053965  53.6959  64.4970 14.81142404787258
H-2A R/B                
1 38341U 12025E   26049.45370149  .00004244  00000+0  38664-3 0  9996
2 38341  98.4705  14.9683 0045254  17.9085 342.3715 14.94992792745349
SHIJIAN-16 (SJ-16)      
1 39358U 13057A   26049.58935027  .00001175  00000+0  11769-3 0  9994
2 39358  74.9699 221.2440 0016332 160.9446 199.2357 14.92264834668654
