CCSDS_OMM_VERS = 2.0
CREATION_DATE  = 
ORIGINATOR     = 

OBJECT_NAME    = ALOS (DAICHI)
OBJECT_ID      = 2006-002A
CENTER_NAME    = EARTH
REF_FRAME      = TEME
TIME_SYSTEM    = UTC
MEAN_ELEMENT_THEORY = SGP/SGP4

EPOCH          = 2026-02-18T10:34:58.708992
MEAN_MOTION    = 14.69743176
ECCENTRICITY   = .00017132
INCLINATION    = 98.1188
RA_OF_ASC_NODE = 5.4982
ARG_OF_PERICENTER = 56.4344
MEAN_ANOMALY   = 303.7025

EPHEMERIS_TYPE = 0
CLASSIFICATION_TYPE = U
NORAD_CAT_ID   = 28931
ELEMENT_SET_NO = 999
REV_AT_EPOCH   = 7065
BSTAR          = .24021205E-3
MEAN_MOTION_DOT = .1383E-4
MEAN_MOTION_DDOT = 0

CCSDS_OMM_VERS = 2.0
CREATION_DATE  = 
ORIGINATOR     = 

OBJECT_NAME    = H-2A R/B
OBJECT_ID      = 2006-002B
CENTER_NAME    = EARTH
REF_FRAME      = TEME
TIME_SYSTEM    = UTC
MEAN_ELEMENT_THEORY = SGP/SGP4

EPOCH          = 2026-02-18T09:42:17.200800
MEAN_MOTION    = 15.16002863
ECCENTRICITY   = .00521916
INCLINATION    = 98.2376
RA_OF_ASC_NODE = 194.7814
ARG_OF_PERICENTER = 307.5961
MEAN_ANOMALY   = 52.0537

EPHEMERIS_TYPE = 0
CLASSIFICATION_TYPE = U
NORAD_CAT_ID   = 28932
ELEMENT_SET_NO = 999
REV_AT_EPOCH   = 9151
BSTAR          = .40982548E-3
MEAN_MOTION_DOT = .8069E-4
MEAN_MOTION_DDOT = 0

CCSDS_OMM_VERS = 2.0
CREATION_DATE  = 
ORIGINATOR     = 

OBJECT_NAME    = RESURS-DK 1
OBJECT_ID      = 2006-021A
CENTER_NAME    = EARTH
REF_FRAME      = TEME
TIME_SYSTEM    = UTC
MEAN_ELEMENT_THEORY = SGP/SGP4

EPOCH          = 2026-02-18T02:15:34.280928
MEAN_MOTION    = 15.12624950
ECCENTRICITY   = .00034979
INCLINATION    = 69.9327
RA_OF_ASC_NODE = 287.7110
ARG_OF_PERICENTER = 188.7670
MEAN_ANOMALY   = 171.3436

EPHEMERIS_TYPE = 0
CLASSIFICATION_TYPE = U
NORAD_CAT_ID   = 29228
ELEMENT_SET_NO = 999
REV_AT_EPOCH   = 8456
BSTAR          = .126687E-3
MEAN_MOTION_DOT = .2111E-4
MEAN_MOTION_DDOT = 0

CCSDS_OMM_VERS = 2.0
CREATION_DATE  = 
ORIGINATOR     = 

OBJECT_NAME    = CZ-4B R/B
OBJECT_ID      = 2006-046C
CENTER_NAME    = EARTH
REF_FRAME      = TEME
TIME_SYSTEM    = UTC
MEAN_ELEMENT_THEORY = SGP/SGP4

EPOCH          = 2026-02-18T14:38:01.919616
MEAN_MOTION    = 15.16691138
ECCENTRICITY   = .00326762
INCLINATION    = 97.5628
RA_OF_ASC_NODE = 94.5686
ARG_OF_PERICENTER = 336.2489
MEAN_ANOMALY   = 23.7233

EPHEMERIS_TYPE = 0
CLASSIFICATION_TYPE = U
NORAD_CAT_ID   = 29507
ELEMENT_SET_NO = 999
REV_AT_EPOCH   = 5715
BSTAR          = .23727085E-3
MEAN_MOTION_DOT = .464E-4
MEAN_MOTION_DDOT = 0

CCSDS_OMM_VERS = 2.0
CREATION_DATE  = 
ORIGINATOR     = 

OBJECT_NAME    = CZ-2C R/B
OBJECT_ID      = 2007-010B
CENTER_NAME    = EARTH
REF_FRAME      = TEME
TIME_SYSTEM    = UTC
MEAN_ELEMENT_THEORY = SGP/SGP4

EPOCH          = 2026-02-18T06:45:32.851008
MEAN_MOTION    = 14.20239061
ECCENTRICITY   = .00586945
INCLINATION    = 98.3971
RA_OF_ASC_NODE = 163.5344
ARG_OF_PERICENTER = 351.8207
MEAN_ANOMALY   = 8.2008

EPHEMERIS_TYPE = 0
CLASSIFICATION_TYPE = U
NORAD_CAT_ID   = 31114
ELEMENT_SET_NO = 999
REV_AT_EPOCH   = 97696
BSTAR          = .69317725E-4
MEAN_MOTION_DOT = .109E-5
MEAN_MOTION_DDOT = 0

CCSDS_OMM_VERS = 2.0
CREATION_DATE  = 
ORIGINATOR     = 

OBJECT_NAME    = COSMO-SKYMED 1
OBJECT_ID      = 2007-023A
CENTER_NAME    = EARTH
REF_FRAME      = TEME
TIME_SYSTEM    = UTC
MEAN_ELEMENT_THEORY = SGP/SGP4

EPOCH          = 2026-02-18T14:35:01.893120
MEAN_MOTION    = 14.96379122
ECCENTRICITY   = .0001428
INCLINATION    = 97.8861
RA_OF_ASC_NODE = 240.4888
ARG_OF_PERICENTER = 92.0776
MEAN_ANOMALY   = 268.0609

EPHEMERIS_TYPE = 0
CLASSIFICATION_TYPE = U
NORAD_CAT_ID   = 31598
ELEMENT_SET_NO = 999
REV_AT_EPOCH   = 1205
BSTAR          = .34910017E-3
MEAN_MOTION_DOT = .3895E-4
MEAN_MOTION_DDOT = 0

CCSDS_OMM_VERS = 2.0
CREATION_DATE  = 
ORIGINATOR     = 

OBJECT_NAME    = COSMOS 2428
OBJECT_ID      = 2007-029A
CENTER_NAME    = EARTH
REF_FRAME      = TEME
TIME_SYSTEM    = UTC
MEAN_ELEMENT_THEORY = SGP/SGP4

EPOCH          = 2026-02-18T13:28:43.478112
MEAN_MOTION    = 14.12939114
ECCENTRICITY   = .00080125
INCLINATION    = 70.9401
RA_OF_ASC_NODE = 243.4951
ARG_OF_PERICENTER = 298.5376
MEAN_ANOMALY   = 61.4938

EPHEMERIS_TYPE = 0
CLASSIFICATION_TYPE = U
NORAD_CAT_ID   = 31792
ELEMENT_SET_NO = 999
REV_AT_EPOCH   = 96139
BSTAR          = .13806959E-3
MEAN_MOTION_DOT = .209E-5
MEAN_MOTION_DDOT = 0

CCSDS_OMM_VERS = 2.0
CREATION_DATE  = 
ORIGINATOR     = 

OBJECT_NAME    = SL-16 R/B
OBJECT_ID      = 2007-029B
CENTER_NAME    = EARTH
REF_FRAME      = TEME
TIME_SYSTEM    = UTC
MEAN_ELEMENT_THEORY = SGP/SGP4

EPOCH          = 2026-02-18T14:49:50.306304
MEAN_MOTION    = 14.14836596
ECCENTRICITY   = .00023499
INCLINATION    = 70.9746
RA_OF_ASC_NODE = 212.4721
ARG_OF_PERICENTER = 280.5113
MEAN_ANOMALY   = 150.9923

EPHEMERIS_TYPE = 0
CLASSIFICATION_TYPE = U
NORAD_CAT_ID   = 31793
ELEMENT_SET_NO = 999
REV_AT_EPOCH   = 96267
BSTAR          = .11783754E-4
MEAN_MOTION_DOT = -.25E-6
MEAN_MOTION_DDOT = 0

CCSDS_OMM_VERS = 2.0
CREATION_DATE  = 
ORIGINATOR     = 

OBJECT_NAME    = KORONAS-FOTON
OBJECT_ID      = 2009-003A
CENTER_NAME    = EARTH
REF_FRAME      = TEME
TIME_SYSTEM    = UTC
MEAN_ELEMENT_THEORY = SGP/SGP4

EPOCH          = 2026-02-18T04:19:11.168832
MEAN_MOTION    = 15.42797644
ECCENTRICITY   = .00094805
INCLINATION    = 82.4308
RA_OF_ASC_NODE = 296.1534
ARG_OF_PERICENTER = 220.4609
MEAN_ANOMALY   = 139.5935

EPHEMERIS_TYPE = 0
CLASSIFICATION_TYPE = U
NORAD_CAT_ID   = 33504
ELEMENT_SET_NO = 999
REV_AT_EPOCH   = 94273
BSTAR          = .23898328E-3
MEAN_MOTION_DOT = .10512E-3
MEAN_MOTION_DDOT = 0

CCSDS_OMM_VERS = 2.0
CREATION_DATE  = 
ORIGINATOR     = 

OBJECT_NAME    = CZ-2C R/B
OBJECT_ID      = 2011-030B
CENTER_NAME    = EARTH
REF_FRAME      = TEME
TIME_SYSTEM    = UTC
MEAN_ELEMENT_THEORY = SGP/SGP4

EPOCH          = 2026-02-18T12:06:33.797376
MEAN_MOTION    = 14.81142404
ECCENTRICITY   = .00539656
INCLINATION    = 97.8514
RA_OF_ASC_NODE = 7.1578
ARG_OF_PERICENTER = 53.6959
MEAN_ANOMALY   = 64.4970

EPHEMERIS_TYPE = 0
CLASSIFICATION_TYPE = U
NORAD_CAT_ID   = 37731
ELEMENT_SET_NO = 999
REV_AT_EPOCH   = 78725
BSTAR          = .20149965E-3
MEAN_MOTION_DOT = .1551E-4
MEAN_MOTION_DDOT = 0

CCSDS_OMM_VERS = 2.0
CREATION_DATE  = 
ORIGINATOR     = 

OBJECT_NAME    = H-2A R/B
OBJECT_ID      = 2012-025E
CENTER_NAME    = EARTH
REF_FRAME      = TEME
TIME_SYSTEM    = UTC
MEAN_ELEMENT_THEORY = SGP/SGP4

EPOCH          = 2026-02-18T10:53:19.808736
MEAN_MOTION    = 14.94992792
ECCENTRICITY   = .00452546
INCLINATION    = 98.4705
RA_OF_ASC_NODE = 14.9683
ARG_OF_PERICENTER = 17.9085
MEAN_ANOMALY   = 342.3715

EPHEMERIS_TYPE = 0
CLASSIFICATION_TYPE = U
NORAD_CAT_ID   = 38341
ELEMENT_SET_NO = 999
REV_AT_EPOCH   = 74534
BSTAR          = .38663983E-3
MEAN_MOTION_DOT = .4244E-4
MEAN_MOTION_DDOT = 0

CCSDS_OMM_VERS = 2.0
CREATION_DATE  = 
ORIGINATOR     = 

OBJECT_NAME    = SHIJIAN-16 (SJ-16)
OBJECT_ID      = 2013-057A
CENTER_NAME    = EARTH
REF_FRAME      = TEME
TIME_SYSTEM    = UTC
MEAN_ELEMENT_THEORY = SGP/SGP4

EPOCH          = 2026-02-18T14:08:39.863328
MEAN_MOTION    = 14.92264834
ECCENTRICITY   = .00163325
INCLINATION    = 74.9699
RA_OF_ASC_NODE = 221.2440
ARG_OF_PERICENTER = 160.9446
MEAN_ANOMALY   = 199.2357

EPHEMERIS_TYPE = 0
CLASSIFICATION_TYPE = U
NORAD_CAT_ID   = 39358
ELEMENT_SET_NO = 999
REV_AT_EPOCH   = 66865
BSTAR          = .11769426E-3
MEAN_MOTION_DOT = .1175E-4
MEAN_MOTION_DDOT = 0

